CCSDS_OEM_VERS = 1.0
CREATION_DATE  = 2017-05-11T11:46:09
ORIGINATOR     = GMAT USER

META_START
OBJECT_NAME          = MOPSSat_alt_35785_km_RAAN_180_159
OBJECT_ID            = SatId
CENTER_NAME          = Earth
REF_FRAME            = EME2000
TIME_SYSTEM          = UTC
START_TIME           = 2017-01-01T00:00:00.000
USEABLE_START_TIME   = 2017-01-01T00:00:00.000
USEABLE_STOP_TIME    = 2017-01-02T00:00:00.000
STOP_TIME            = 2017-01-02T00:00:00.000
INTERPOLATION        = Lagrange
INTERPOLATION_DEGREE = 7 
META_STOP


                                                                                   

2017-01-01T18:01:40.000   4.559690804541679e+04   2.955450013602933e+04  -5.223055646054089e+00  -2.090196243909488e+00   9.192216719512599e-01  -3.080863059995263e-05
2017-01-01T18:01:50.000   4.557600041790751e+04   2.956368867978736e+04  -5.223363084658057e+00  -2.091329301576006e+00   9.184869565461311e-01  -3.067907073283851e-05
2017-01-01T18:02:00.000   4.555508145831010e+04   2.957286987278544e+04  -5.223669227082315e+00  -2.092462624449990e+00   9.177515035067589e-01  -3.054939409477213e-05
2017-01-01T18:02:10.000   4.553415116402651e+04   2.958204370761831e+04  -5.223974072157763e+00  -2.093596212677062e+00   9.170153119540030e-01  -3.041960057882572e-05
2017-01-01T18:02:20.000   4.551320953248804e+04   2.959121017685916e+04  -5.224277618713860e+00  -2.094730066401080e+00   9.162783810083157e-01  -3.028969007809571e-05
2017-01-01T18:02:30.000   4.549225656113360e+04   2.960036927306821e+04  -5.224579865578856e+00  -2.095864185765280e+00   9.155407097889599e-01  -3.015966248557058e-05
2017-01-01T18:02:40.000   4.547129224740247e+04   2.960952098879612e+04  -5.224880811579897e+00  -2.096998570912679e+00   9.148022974137464e-01  -3.002951769408295e-05
2017-01-01T18:02:50.000   4.545031658865965e+04   2.961866531661692e+04  -5.225180455544146e+00  -2.098133221990130e+00   9.140631429964158e-01  -2.989925559585287e-05
2017-01-01T18:03:00.000   4.542932958224523e+04   2.962780224910585e+04  -5.225478796298018e+00  -2.099268139145614e+00   9.133232456483626e-01  -2.976887608278768e-05
2017-01-01T18:03:10.000   4.540833122547468e+04   2.963693177883947e+04  -5.225775832667191e+00  -2.100403322528257e+00   9.125826044786415e-01  -2.963837904648473e-05
2017-01-01T18:03:20.000   4.538732151558824e+04   2.964605389841704e+04  -5.226071563477237e+00  -2.101538772291023e+00   9.118412185921679e-01  -2.950776437791012e-05
2017-01-01T18:03:30.000   4.536630044982635e+04   2.965516860042819e+04  -5.226365987552632e+00  -2.102674488586664e+00   9.110990870923845e-01  -2.937703196787364e-05
2017-01-01T18:03:40.000   4.534526802543740e+04   2.966427587744956e+04  -5.226659103716632e+00  -2.103810471567297e+00   9.103562090815346e-01  -2.924618170707468e-05
2017-01-01T18:03:50.000   4.532422423969785e+04   2.967337572203527e+04  -5.226950910790900e+00  -2.104946721383293e+00   9.096125836613490e-01  -2.911521348622994e-05
2017-01-01T18:04:00.000   4.530316908993004e+04   2.968246812671025e+04  -5.227241407595396e+00  -2.106083238182346e+00   9.088682099336928e-01  -2.898412719618151e-05
2017-01-01T18:04:10.000   4.528210257343975e+04   2.969155308399671e+04  -5.227530592949146e+00  -2.107220022112825e+00   9.081230869983541e-01  -2.885292272750937e-05
2017-01-01T18:04:20.000   4.526102468779506e+04   2.970063058629510e+04  -5.227818465666596e+00  -2.108357073308765e+00   9.073772139629286e-01  -2.872159997226621e-05
2017-01-01T18:04:30.000   4.523993543048876e+04   2.970970062602849e+04  -5.228105024562081e+00  -2.109494391908044e+00   9.066305899308490e-01  -2.859015882187597e-05
2017-01-01T18:04:40.000   4.521883479906386e+04   2.971876319558881e+04  -5.228390268448142e+00  -2.110631978045626e+00   9.058832140058223e-01  -2.845859916791353e-05
2017-01-01T18:04:50.000   4.519772279062818e+04   2.972781828754531e+04  -5.228674196142114e+00  -2.111769831879729e+00   9.051350852746459e-01  -2.832692089908480e-05
2017-01-01T18:05:00.000   4.517659940233840e+04   2.973686589443653e+04  -5.228956806459531e+00  -2.112907953565716e+00   9.043862028243359e-01  -2.819512390423725e-05
2017-01-01T18:05:10.000   4.515546463129055e+04   2.974590600881751e+04  -5.229238098215653e+00  -2.114046343262016e+00   9.036365657382571e-01  -2.806320807168029e-05
2017-01-01T18:05:20.000   4.513431847479217e+04   2.975493862314173e+04  -5.229518070221635e+00  -2.115185001115409e+00   9.028861731057215e-01  -2.793117329087182e-05
2017-01-01T18:05:30.000   4.511316093016075e+04   2.976396372984900e+04  -5.229796721287412e+00  -2.116323927271933e+00   9.021350240148871e-01  -2.779901945117137e-05
2017-01-01T18:05:40.000   4.509199199472304e+04   2.977298132136509e+04  -5.230074050221634e+00  -2.117463121876901e+00   9.013831175527108e-01  -2.766674644183169e-05
2017-01-01T18:05:50.000   4.507081166602013e+04   2.978199139001598e+04  -5.230350055829164e+00  -2.118602585063909e+00   9.006304528122767e-01  -2.753435415329028e-05
2017-01-01T18:06:00.000   4.504961994153194e+04   2.979099392814370e+04  -5.230624736914509e+00  -2.119742316969621e+00   8.998770288829586e-01  -2.740184247543681e-05
2017-01-01T18:06:10.000   4.502841681878536e+04   2.979998892806050e+04  -5.230898092280435e+00  -2.120882317727951e+00   8.991228448542773e-01  -2.726921129829283e-05
2017-01-01T18:06:20.000   4.500720229487620e+04   2.980897638225199e+04  -5.231170120734160e+00  -2.122022587495784e+00   8.983678997988849e-01  -2.713646050901590e-05
2017-01-01T18:06:30.000   4.498597636694714e+04   2.981795628317383e+04  -5.231440821081149e+00  -2.123163126427252e+00   8.976121927895663e-01  -2.700358999489338e-05
2017-01-01T18:06:40.000   4.496473903208003e+04   2.982692862329801e+04  -5.231710192126533e+00  -2.124303934679546e+00   8.968557228954064e-01  -2.687059964266727e-05
2017-01-01T18:06:50.000   4.494349028756924e+04   2.983589339499533e+04  -5.231978232671453e+00  -2.125445012398176e+00   8.960984891914784e-01  -2.673748934024150e-05
2017-01-01T18:07:00.000   4.492223013071918e+04   2.984485059062293e+04  -5.232244941515814e+00  -2.126586359727903e+00   8.953404907516731e-01  -2.660425897541813e-05
2017-01-01T18:07:10.000   4.490095855884359e+04   2.985380020252376e+04  -5.232510317458233e+00  -2.127727976812749e+00   8.945817266486564e-01  -2.647090843589078e-05
2017-01-01T18:07:20.000   4.487967556947159e+04   2.986274222294154e+04  -5.232774359293637e+00  -2.128869863784987e+00   8.938221959612608e-01  -2.633743761054164e-05
2017-01-01T18:07:30.000   4.485838116007083e+04   2.987167664413569e+04  -5.233037065816554e+00  -2.130012020779957e+00   8.930618977645606e-01  -2.620384638769962e-05
2017-01-01T18:07:40.000   4.483707532815630e+04   2.988060345833591e+04  -5.233298435819790e+00  -2.131154447930236e+00   8.923008311337626e-01  -2.607013465582443e-05
2017-01-01T18:07:50.000   4.481575807080961e+04   2.988952265794366e+04  -5.233558468100327e+00  -2.132297145391405e+00   8.915389951270354e-01  -2.593630230048867e-05
2017-01-01T18:08:00.000   4.479442938515972e+04   2.989843423533054e+04  -5.233817161453412e+00  -2.133440113316287e+00   8.907763888026667e-01  -2.580234920739417e-05
2017-01-01T18:08:10.000   4.477308926827436e+04   2.990733818288405e+04  -5.234074514673922e+00  -2.134583351860754e+00   8.900130112151957e-01  -2.566827526169136e-05
2017-01-01T18:08:20.000   4.475173771743492e+04   2.991623449289114e+04  -5.234330526552831e+00  -2.135726861168971e+00   8.892488614251877e-01  -2.553408034970167e-05
2017-01-01T18:08:30.000   4.473037472993275e+04   2.992512315762493e+04  -5.234585195879878e+00  -2.136870641384335e+00   8.884839384920004e-01  -2.539976435764176e-05
2017-01-01T18:08:40.000   4.470900030306874e+04   2.993400416934427e+04  -5.234838521443496e+00  -2.138014692649501e+00   8.877182414737397e-01  -2.526532717161797e-05
2017-01-01T18:08:50.000   4.468761443436018e+04   2.994287752020931e+04  -5.235090502028552e+00  -2.139159015095338e+00   8.869517694347189e-01  -2.513076867892982e-05
2017-01-01T18:09:00.000   4.466621712126259e+04   2.995174320239558e+04  -5.235341136419442e+00  -2.140303608855778e+00   8.861845214354432e-01  -2.499608876631821e-05
2017-01-01T18:09:10.000   4.464480836128113e+04   2.996060120804804e+04  -5.235590423398838e+00  -2.141448474061866e+00   8.854164965366114e-01  -2.486128732066637e-05
2017-01-01T18:09:20.000   4.462338815147962e+04   2.996945152948433e+04  -5.235838361753403e+00  -2.142593610868017e+00   8.846476937814941e-01  -2.472636422591222e-05
2017-01-01T18:09:30.000   4.460195648897260e+04   2.997829415899092e+04  -5.236084950268029e+00  -2.143739019425688e+00   8.838781122135875e-01  -2.459131936614200e-05
2017-01-01T18:09:40.000   4.458051337079857e+04   2.998712908887574e+04  -5.236330187727346e+00  -2.144884699890170e+00   8.831077508720589e-01  -2.445615262479302e-05
2017-01-01T18:09:50.000   4.455905879426100e+04   2.999595631132628e+04  -5.236574072911647e+00  -2.146030652402326e+00   8.823366088039576e-01  -2.432086388679233e-05
2017-01-01T18:10:00.000   4.453759275664707e+04   3.000477581852687e+04  -5.236816604600268e+00  -2.147176877103655e+00   8.815646850541449e-01  -2.418545303679432e-05
2017-01-01T18:10:10.000   4.451611525529042e+04   3.001358760263233e+04  -5.237057781570819e+00  -2.148323374132930e+00   8.807919786675343e-01  -2.404991995957240e-05
2017-01-01T18:10:20.000   4.449462628755478e+04   3.002239165577571e+04  -5.237297602599493e+00  -2.149470143627088e+00   8.800184886885315e-01  -2.391426453992500e-05
2017-01-01T18:10:30.000   4.447312585081199e+04   3.003118797007649e+04  -5.237536066461195e+00  -2.150617185722396e+00   8.792442141602101e-01  -2.377848666252726e-05
2017-01-01T18:10:40.000   4.445161394243425e+04   3.003997653764387e+04  -5.237773171929678e+00  -2.151764500554854e+00   8.784691541240386e-01  -2.364258621188472e-05
